LEMUR-2-STARLIGHT       
1 66783U 25276DY  26166.16747793  .00004304  00000+0  35886-3 0  9990
2 66783  97.5273 236.8750 0015231 133.6265 226.6225 14.99024058 29899
LEMUR-2-TARTIFLETTE     
1 66784U 25276DZ  26166.16599457  .00004289  00000+0  35745-3 0  9999
2 66784  97.5278 236.8803 0014008 139.9151 220.3108 14.99054388 29898
LEMUR-2-VUKASIN         
1 66785U 25276EA  26166.16140007  .00004890  00000+0  39404-3 0  9997
2 66785  97.5315 237.1668 0006226 129.0915 231.0864 15.00349087 29844
LEMUR-2-HOTSPUR-TOM     
1 66786U 25276EB  26166.15841582  .00005394  00000+0  44934-3 0  9997
2 66786  97.5270 236.8542 0015565 133.6893 226.5623 14.98941006 29829
LEMUR-2-MYRA            
1 66787U 25276EC  26166.19270641  .00006193  00000+0  49824-3 0  9995
2 66787  97.5221 237.1389 0016356 147.9911 212.2310 15.00219246 29910
LEMUR-2 FIKRETDENGIZ    
1 67363U 26004A   26165.98291389  .00003259  00000+0  35794-3 0  9995
2 67363  97.8008 164.5746 0009919 139.4457 220.7500 14.88310958 22954
TWILIGHT-1 OBJECT B     
1 67364U 26004B   26165.93919632  .00001620  00000+0  18369-3 0  9998
2 67364  97.8061 164.5479 0009809 130.6405 229.5666 14.87695274 22957
LEMUR-2-MARIO-SOUSA     
1 67365U 26004C   26165.96681093  .00003640  00000+0  39726-3 0  9993
2 67365  97.7984 164.5553 0009476 139.6531 220.5391 14.88499543 22962
LEMUR-2-SONNENBLUME     
1 67367U 26004E   26165.96491226  .00002417  00000+0  26705-3 0  9996
2 67367  97.7980 164.5388 0008989 141.4997 218.6863 14.88306685 22967
LEMUR-2-WOBLER          
1 67368U 26004F   26165.95869813  .00003396  00000+0  37100-3 0  9995
2 67368  97.8033 164.6527 0009475 131.7141 228.4887 14.88504889 22969
LEMUR-2-GRAM-E-SUE      
1 67370U 26004H   26165.94928066  .00002424  00000+0  26683-3 0  9998
2 67370  97.7968 164.5383 0008067 142.2203 217.9582 14.88463007 22960
LEMUR-2-KATIE           
1 67387U 26004AA  26166.00607486  .00003460  00000+0  36417-3 0  9991
2 67387  97.8032 165.0465 0004824  97.8741 262.3024 14.90035980 22982
LEMUR-2-HCS-BAZUS       
1 67388U 26004AB  26166.00516309  .00005179  00000+0  54189-3 0  9990
2 67388  97.8015 165.0264 0004395  94.4950 265.6769 14.90051560 22983
