OBJECT_NAME,OBJECT_ID,EPOCH,MEAN_MOTION,ECCENTRICITY,INCLINATION,RA_OF_ASC_NODE,ARG_OF_PERICENTER,MEAN_ANOMALY,EPHEMERIS_TYPE,CLASSIFICATION_TYPE,NORAD_CAT_ID,ELEMENT_SET_NO,REV_AT_EPOCH,BSTAR,MEAN_MOTION_DOT,MEAN_MOTION_DDOT
LEMUR-2-STARLIGHT,2025-276DY,2026-06-15T04:01:10.093152,14.99024058,.0015231,97.5273,236.8750,133.6265,226.6225,0,U,66783,999,2989,.35886E-3,.4304E-4,0
LEMUR-2-TARTIFLETTE,2025-276DZ,2026-06-15T03:59:01.930848,14.99054388,.0014008,97.5278,236.8803,139.9151,220.3108,0,U,66784,999,2989,.35745E-3,.4289E-4,0
LEMUR-2-VUKASIN,2025-276EA,2026-06-15T03:52:24.966048,15.00349087,.0006226,97.5315,237.1668,129.0915,231.0864,0,U,66785,999,2984,.39404E-3,.489E-4,0
LEMUR-2-HOTSPUR-TOM,2025-276EB,2026-06-15T03:48:07.126848,14.98941006,.0015565,97.5270,236.8542,133.6893,226.5623,0,U,66786,999,2982,.44934E-3,.5394E-4,0
LEMUR-2-MYRA,2025-276EC,2026-06-15T04:37:29.833824,15.00219246,.0016356,97.5221,237.1389,147.9911,212.2310,0,U,66787,999,2991,.49824E-3,.6193E-4,0
LEMUR-2 FIKRETDENGIZ,2026-004A,2026-06-14T23:35:23.760096,14.88310958,.0009919,97.8008,164.5746,139.4457,220.7500,0,U,67363,999,2295,.35794E-3,.3259E-4,0
TWILIGHT-1 OBJECT B,2026-004B,2026-06-14T22:32:26.562048,14.87695274,.0009809,97.8061,164.5479,130.6405,229.5666,0,U,67364,999,2295,.18369E-3,.162E-4,0
LEMUR-2-MARIO-SOUSA,2026-004C,2026-06-14T23:12:12.464352,14.88499543,.0009476,97.7984,164.5553,139.6531,220.5391,0,U,67365,999,2296,.39726E-3,.364E-4,0
LEMUR-2-SONNENBLUME,2026-004E,2026-06-14T23:09:28.419264,14.88306685,.0008989,97.7980,164.5388,141.4997,218.6863,0,U,67367,999,2296,.26705E-3,.2417E-4,0
LEMUR-2-WOBLER,2026-004F,2026-06-14T23:00:31.518432,14.88504889,.0009475,97.8033,164.6527,131.7141,228.4887,0,U,67368,999,2296,.371E-3,.3396E-4,0
LEMUR-2-GRAM-E-SUE,2026-004H,2026-06-14T22:46:57.849024,14.88463007,.0008067,97.7968,164.5383,142.2203,217.9582,0,U,67370,999,2296,.26683E-3,.2424E-4,0
LEMUR-2-KATIE,2026-004AA,2026-06-15T00:08:44.867904,14.90035980,.0004824,97.8032,165.0465,97.8741,262.3024,0,U,67387,999,2298,.36417E-3,.346E-4,0
LEMUR-2-HCS-BAZUS,2026-004AB,2026-06-15T00:07:26.090976,14.90051560,.0004395,97.8015,165.0264,94.4950,265.6769,0,U,67388,999,2298,.54189E-3,.5179E-4,0
